ONEWEB-0118             
1 47264U 20100G   24108.59921299 -.00000374  00000+0 -10738-2 0  9993
2 47264  87.8961 148.0307 0002642  92.1870 267.9561 13.12442201161024
ONEWEB-0119             
1 47265U 20100H   24108.55156526  .00000404  00000+0  10865-2 0  9996
2 47265  87.8963 148.0791 0001995  98.2856 261.8499 13.12441730160999
ONEWEB-0120             
1 47266U 20100J   24108.57393153  .00000241  00000+0  63551-3 0  9998
2 47266  87.8965 148.0629 0002080  99.3492 260.7872 13.12440408161025
ONEWEB-0121             
1 47267U 20100K   24108.56268984  .00000460  00000+0  12432-2 0  9995
2 47267  87.8959 148.0594 0001901  97.6828 262.4516 13.12441934160933
ONEWEB-0122             
1 47268U 20100L   24108.55778460  .00000521  00000+0  14135-2 0  9990
2 47268  87.8960 148.0650 0002111 101.0994 259.0372 13.12442666160842
ONEWEB-0124             
1 47270U 20100N   24108.61827057  .00000067  00000+0  14962-3 0  9991
2 47270  87.8964 148.0608 0001760  98.1115 262.0214 13.12442316160876
